TDRS 3                  
1 19548U 88091B   22213.77010559 -.00000293  00000+0  00000+0 0  9990
2 19548  13.6818 350.9568 0033540 329.5499 218.2214  1.00276931111178
HST                     
1 20580U 90037B   22213.76381410  .00000867  00000+0  40213-4 0  9998
2 20580  28.4687 228.5360 0002680 158.8529   5.6849 15.10720961573078
TDRS 5                  
1 21639U 91054B   22214.10534175  .00000089  00000+0  00000+0 0  9992
2 21639  14.2339   4.2827 0024487   4.8221 172.0307  1.00266009113515
TDRS 6                  
1 22314U 93003B   22213.92052360 -.00000290  00000+0  00000+0 0  9994
2 22314  14.1335   7.5337 0011928 122.5609 105.7971  1.00279243108212
TDRS 7                  
1 23613U 95035B   22213.87202222 -.00000197  00000+0  00000+0 0  9998
2 23613  13.9599 358.2260 0028458  57.5049 293.3967  1.00275645 99058
ISS (ZARYA)             
1 25544U 98067A   22214.30881345  .00004882  00000+0  92816-4 0  9994
2 25544  51.6438 108.1238 0005298  74.4591  64.5251 15.50203291352333
LANDSAT 7               
1 25682U 99020A   22214.56144256  .00000135  00000+0  37590-4 0  9993
2 25682  97.9761 260.8859 0001275  74.0690 286.0653 14.59779161239298
TERRA                   
1 25994U 99068A   22214.19990374  .00000126  00000+0  37779-4 0  9999
2 25994  98.1349 285.0670 0001650  97.6320 284.3740 14.57130521203284
TDRS 8                  
1 26388U 00034A   22214.01298628 -.00000231  00000+0  00000+0 0  9996
2 26388  10.4370  42.2362 0020175 352.8845   9.5213  1.00272423 80989
TIMED                   
1 26998U 01055B   22214.07353162  .00000272  00000+0  33130-4 0  9997
2 26998  74.0715 188.7539 0000963 304.2604  55.8486 14.88733350119939
TDRS 9                  
1 27389U 02011A   22213.50656808 -.00000284  00000+0  00000+0 0  9994
2 27389   9.1127  60.4070 0022718 302.4896  67.2591  1.00275875 76255
AQUA                    
1 27424U 02022A   22214.50855365  .00000203  00000+0  54927-4 0  9998
2 27424  98.2485 155.9674 0002028  84.0960  47.3043 14.57343639 76934
TDRS 10                 
1 27566U 02055A   22214.54756358  .00000093  00000+0  00000+0 0  9992
2 27566   8.2841  49.7106 0007541 354.9242 292.6637  1.00265688 72048
SORCE                   
1 27651U 03004A   22213.77681533  .00000372  00000+0  51842-4 0  9993
2 27651  39.9964 324.4031 0022075  70.1833 290.1334 14.90012449 59851
AURA                    
1 28376U 04026A   22213.88678843  .00000202  00000+0  54988-4 0  9991
2 28376  98.2103 156.5723 0001516  85.9981 274.1390 14.57102628959840
SWIFT                   
1 28485U 04047A   22213.72633686  .00001856  00000+0  91504-4 0  9995
2 28485  20.5577 352.5182 0010615 151.5138 208.5878 15.06646756970389
THEMIS A                
1 30580U 07004A   22213.57090782 -.00000475  00000+0 -63978-2 0  9997
2 30580  14.0228 340.9989 8381712 174.5011 214.3593  0.87836037 53520
THEMIS D                
1 30797U 07004D   22214.46749573 -.00000348  00000+0  00000+0 0  9997
2 30797   9.8254 330.3324 8340845 188.3989 149.0970  0.87838212 53054
THEMIS E                
1 30798U 07004E   22214.46767013 -.00000356  00000+0  00000+0 0  9996
2 30798  10.7040 343.6685 8329022 177.1911 138.6665  0.87841642 53473
AIM                     
1 31304U 07015A   22213.87886050  .00003137  00000+0  15672-3 0  9993
2 31304  97.8534 134.7922 0003888 200.0093 160.0988 15.18266710838084
FGRST (GLAST)           
1 33053U 08029A   22214.09678216  .00000787  00000+0  27456-4 0  9992
2 33053  25.5814 215.9126 0011909 351.0015   9.0306 15.12296846780830
WISE                    
1 36119U 09071A   22213.86400261  .00002927  00000+0  91002-4 0  9999
2 36119  97.2366 247.3895 0003738 121.7822 238.3786 15.34111884702469
TDRS 11                 
1 39070U 13004A   22214.54170522  .00000087  00000+0  00000+0 0  9997
2 39070   2.8892 347.3512 0006782  78.2194 266.1177  1.00271751 34808
TDRS 12                 
1 39504U 14004A   22213.90935687 -.00000263  00000+0  00000+0 0  9997
2 39504   3.8209 348.0748 0004889 145.1977 103.3667  1.00263668 30081
GPM-CORE                
1 39574U 14009C   22214.52598884  .00009285  00000+0  13854-3 0  9999
2 39574  65.0019  31.4529 0009658 271.0447  88.9592 15.55578349478785
MMS 1                   
1 40482U 15011A   22210.66624109 -.00001993  00000+0  00000+0 0  9998
2 40482  31.6447 102.1270 8731681  55.8993  96.5619  0.28440580 13428
MMS 2                   
1 40483U 15011B   22210.66901887 -.00001993  00000+0  00000+0 0  9990
2 40483  31.6424 102.1306 8732855  55.8961  96.8552  0.28440571 13488
MMS 3                   
1 40484U 15011C   22208.99887998 -.00002132  00000+0  00000+0 0  9996
2 40484  31.6397 102.2123 8730026  55.7780 286.0156  0.28420763 13150
MMS 4                   
1 40485U 15011D   22208.99887998 -.00002132  00000+0  00000+0 0  9997
2 40485  31.6387 102.2114 8730691  55.7908 285.9637  0.28427752 13360
TDRS 13                 
1 42915U 17047A   22214.20807903 -.00000091  00000+0  00000+0 0  9999
2 42915   4.4137 333.8692 0019110 120.2830 280.0534  1.00272287 18194
JPSS-1                  
1 43013U 17073A   22214.53150487  .00000000  00000+0  20838-4 0  9997
2 43013  98.7170 152.3685 0000811  69.6317 290.4947 14.19563864243761
